{
  "type": "FeatureCollection",
  "features": [
    {
      "type": "Feature",
      "properties": {
        "norad_id": 66598,
        "name": "STARLINK-35981",
        "group": "last-30-days",
        "lat": 29.894004994085574,
        "lon": -139.39113330333407,
        "alt_km": 410.8151432433715,
        "timestamp": "2025-12-14T11:29:48.798245+00:00",
        "meta_object_name": "STARLINK-35981",
        "meta_object_id": "2025-270L",
        "meta_epoch": "2025-12-13T14:00:03.000384",
        "meta_mean_motion": 15.50510175,
        "meta_eccentricity": 0.00014131,
        "meta_inclination": 42.9997,
        "meta_ra_of_asc_node": 187.7563,
        "meta_arg_of_pericenter": 255.6246,
        "meta_mean_anomaly": 185.6894,
        "meta_ephemeris_type": 0,
        "meta_classification_type": "U",
        "meta_norad_cat_id": 66598,
        "meta_element_set_no": 999,
        "meta_rev_at_epoch": 437,
        "meta_bstar": 0.0014103827,
        "meta_mean_motion_dot": 0.00083077,
        "meta_mean_motion_ddot": 0,
        "tle_line1": "1 66598U 25270L   25347.58336806  .00083077  00000+0  14104-2 0  9996",
        "tle_line2": "2 66598  42.9997 187.7563 0001413 255.6246 185.6894 15.50510175  4377"
      },
      "geometry": {
        "type": "Point",
        "coordinates": [
          -139.39113330333407,
          29.894004994085574
        ]
      }
    },
    {
      "type": "Feature",
      "properties": {
        "norad_id": 66599,
        "name": "STARLINK-35930",
        "group": "last-30-days",
        "lat": 30.919260512740106,
        "lon": -137.49068089378076,
        "alt_km": 410.0672711846837,
        "timestamp": "2025-12-14T11:29:48.798256+00:00",
        "meta_object_name": "STARLINK-35930",
        "meta_object_id": "2025-270M",
        "meta_epoch": "2025-12-13T14:00:03.000384",
        "meta_mean_motion": 15.50495205,
        "meta_eccentricity": 4.584e-05,
        "meta_inclination": 42.9998,
        "meta_ra_of_asc_node": 187.7522,
        "meta_arg_of_pericenter": 247.9175,
        "meta_mean_anomaly": 195.3228,
        "meta_ephemeris_type": 0,
        "meta_classification_type": "U",
        "meta_norad_cat_id": 66599,
        "meta_element_set_no": 999,
        "meta_rev_at_epoch": 453,
        "meta_bstar": 0.0017833519,
        "meta_mean_motion_dot": 0.00105383,
        "meta_mean_motion_ddot": 0,
        "tle_line1": "1 66599U 25270M   25347.58336806  .00105383  00000+0  17834-2 0  9995",
        "tle_line2": "2 66599  42.9998 187.7522 0000458 247.9175 195.3228 15.50495205  4530"
      },
      "geometry": {
        "type": "Point",
        "coordinates": [
          -137.49068089378076,
          30.919260512740106
        ]
      }
    },
    {
      "type": "Feature",
      "properties": {
        "norad_id": 66600,
        "name": "STARLINK-35980",
        "group": "last-30-days",
        "lat": 31.904009257371946,
        "lon": -135.57464473187923,
        "alt_km": 411.09448277163574,
        "timestamp": "2025-12-14T11:29:48.798268+00:00",
        "meta_object_name": "STARLINK-35980",
        "meta_object_id": "2025-270N",
        "meta_epoch": "2025-12-13T14:00:03.000384",
        "meta_mean_motion": 15.50512213,
        "meta_eccentricity": 0.00026434,
        "meta_inclination": 42.9998,
        "meta_ra_of_asc_node": 187.7468,
        "meta_arg_of_pericenter": 263.9814,
        "meta_mean_anomaly": 181.1648,
        "meta_ephemeris_type": 0,
        "meta_classification_type": "U",
        "meta_norad_cat_id": 66600,
        "meta_element_set_no": 999,
        "meta_rev_at_epoch": 443,
        "meta_bstar": 0.0013870787,
        "meta_mean_motion_dot": 0.00081696,
        "meta_mean_motion_ddot": 0,
        "tle_line1": "1 66600U 25270N   25347.58336806  .00081696  00000+0  13871-2 0  9995",
        "tle_line2": "2 66600  42.9998 187.7468 0002643 263.9814 181.1648 15.50512213  4435"
      },
      "geometry": {
        "type": "Point",
        "coordinates": [
          -135.57464473187923,
          31.904009257371946
        ]
      }
    },
    {
      "type": "Feature",
      "properties": {
        "norad_id": 66601,
        "name": "STARLINK-35978",
        "group": "last-30-days",
        "lat": 30.243847792192767,
        "lon": -138.75292133783896,
        "alt_km": 420.8074824286223,
        "timestamp": "2025-12-14T11:29:48.798278+00:00",
        "meta_object_name": "STARLINK-35978",
        "meta_object_id": "2025-270P",
        "meta_epoch": "2025-12-13T14:00:03.000384",
        "meta_mean_motion": 15.50839543,
        "meta_eccentricity": 9.05e-05,
        "meta_inclination": 42.9996,
        "meta_ra_of_asc_node": 187.7417,
        "meta_arg_of_pericenter": 260.8468,
        "meta_mean_anomaly": 186.1857,
        "meta_ephemeris_type": 0,
        "meta_classification_type": "U",
        "meta_norad_cat_id": 66601,
        "meta_element_set_no": 999,
        "meta_rev_at_epoch": 437,
        "meta_bstar": -0.035885356,
        "meta_mean_motion_dot": -0.01908364,
        "meta_mean_motion_ddot": 0,
        "tle_line1": "1 66601U 25270P   25347.58336806 -.01908364  00000+0 -35885-1 0  9997",
        "tle_line2": "2 66601  42.9996 187.7417 0000905 260.8468 186.1857 15.50839543  4376"
      },
      "geometry": {
        "type": "Point",
        "coordinates": [
          -138.75292133783896,
          30.243847792192767
        ]
      }
    },
    {
      "type": "Feature",
      "properties": {
        "norad_id": 66602,
        "name": "STARLINK-36050",
        "group": "last-30-days",
        "lat": -8.406638405405849,
        "lon": 173.53320310451932,
        "alt_km": 446.1876069430318,
        "timestamp": "2025-12-14T11:29:48.798290+00:00",
        "meta_object_name": "STARLINK-36050",
        "meta_object_id": "2025-270Q",
        "meta_epoch": "2025-12-13T14:00:03.000384",
        "meta_mean_motion": 15.40864833,
        "meta_eccentricity": 0.00016965,
        "meta_inclination": 42.9998,
        "meta_ra_of_asc_node": 187.8203,
        "meta_arg_of_pericenter": 242.1437,
        "meta_mean_anomaly": 172.1272,
        "meta_ephemeris_type": 0,
        "meta_classification_type": "U",
        "meta_norad_cat_id": 66602,
        "meta_element_set_no": 999,
        "meta_rev_at_epoch": 443,
        "meta_bstar": -0.007212441,
        "meta_mean_motion_dot": -0.00291958,
        "meta_mean_motion_ddot": 0,
        "tle_line1": "1 66602U 25270Q   25347.58336806 -.00291958  00000+0 -72124-2 0  9999",
        "tle_line2": "2 66602  42.9998 187.8203 0001696 242.1437 172.1272 15.40864833  4432"
      },
      "geometry": {
        "type": "Point",
        "coordinates": [
          173.53320310451932,
          -8.406638405405849
        ]
      }
    },
    {
      "type": "Feature",
      "properties": {
        "norad_id": 66603,
        "name": "STARLINK-36048",
        "group": "last-30-days",
        "lat": 34.67451308443052,
        "lon": -129.57394322926544,
        "alt_km": 410.34572127520096,
        "timestamp": "2025-12-14T11:29:48.798301+00:00",
        "meta_object_name": "STARLINK-36048",
        "meta_object_id": "2025-270R",
        "meta_epoch": "2025-12-13T14:00:03.000384",
        "meta_mean_motion": 15.50503009,
        "meta_eccentricity": 0.00016592,
        "meta_inclination": 42.9999,
        "meta_ra_of_asc_node": 187.7325,
        "meta_arg_of_pericenter": 243.3132,
        "meta_mean_anomaly": 207.5923,
        "meta_ephemeris_type": 0,
        "meta_classification_type": "U",
        "meta_norad_cat_id": 66603,
        "meta_element_set_no": 999,
        "meta_rev_at_epoch": 443,
        "meta_bstar": 0.0014913382,
        "meta_mean_motion_dot": 0.00087898,
        "meta_mean_motion_ddot": 0,
        "tle_line1": "1 66603U 25270R   25347.58336806  .00087898  00000+0  14913-2 0  9996",
        "tle_line2": "2 66603  42.9999 187.7325 0001659 243.3132 207.5923 15.50503009  4434"
      },
      "geometry": {
        "type": "Point",
        "coordinates": [
          -129.57394322926544,
          34.67451308443052
        ]
      }
    },
    {
      "type": "Feature",
      "properties": {
        "norad_id": 66604,
        "name": "STARLINK-35977",
        "group": "last-30-days",
        "lat": 35.48052282758339,
        "lon": -127.61345872095163,
        "alt_km": 410.6278351707242,
        "timestamp": "2025-12-14T11:29:48.798311+00:00",
        "meta_object_name": "STARLINK-35977",
        "meta_object_id": "2025-270S",
        "meta_epoch": "2025-12-13T14:00:03.000384",
        "meta_mean_motion": 15.50565892,
        "meta_eccentricity": 0.00016837,
        "meta_inclination": 42.9998,
        "meta_ra_of_asc_node": 187.727,
        "meta_arg_of_pericenter": 254.3451,
        "meta_mean_anomaly": 198.484,
        "meta_ephemeris_type": 0,
        "meta_classification_type": "U",
        "meta_norad_cat_id": 66604,
        "meta_element_set_no": 999,
        "meta_rev_at_epoch": 453,
        "meta_bstar": -0.00047103353,
        "meta_mean_motion_dot": -0.00027864,
        "meta_mean_motion_ddot": 0,
        "tle_line1": "1 66604U 25270S   25347.58336806 -.00027864  00000+0 -47103-3 0  9994",
        "tle_line2": "2 66604  42.9998 187.7270 0001683 254.3451 198.4840 15.50565892  4531"
      },
      "geometry": {
        "type": "Point",
        "coordinates": [
          -127.61345872095163,
          35.48052282758339
        ]
      }
    }
  ]
}